0 THORAD AGENA D DEB
1 04654U 70025AN  13282.48452060  .00001353  00000-0  94757-3 0  4653
2 04654 100.0372 258.0096 0034892 342.7873 140.0117 14.00150327189245
0 THORAD AGENA D DEB
1 04654U 70025AN  13284.18839361  .00001439  00000-0  10058-2 0  4662
2 04654 100.0372 259.8778 0034773 338.1619 088.5269 14.00153688189489
0 THORAD AGENA D DEB
1 04654U 70025AN  13285.48505600  .00001223  00000-0  85993-3 0  4675
2 04654 100.0373 261.2997 0034678 334.6377 144.4857 14.00157650189664
0 THORAD AGENA D DEB
1 04654U 70025AN  13286.48511709  .00001282  00000-0  89968-3 0  4685
2 04654 100.0374 262.3962 0034611 331.9216 145.4080 14.00160123189802
0 THORAD AGENA D DEB
1 04654U 70025AN  13287.48648544  .00001443  00000-0  10083-2 0  4695
2 04654 100.0375 263.4941 0034546 329.1995 152.9313 14.00163421189943
0 THORAD AGENA D DEB
1 04654U 70025AN  13288.83355500  .00001734  00000-0  12045-2 0  4707
2 04654 100.0377 264.9710 0034492 325.4706 103.0977 14.00169366190134
0 THORAD AGENA D DEB
1 04654U 70025AN  13289.83408153  .00001650  00000-0  11476-2 0  4716
2 04654 100.0379 266.0681 0034429 322.7502 106.4093 14.00173877190273
0 THORAD AGENA D DEB
1 04654U 70025AN  13290.90277918  .00001612  00000-0  11221-2 0  4726
2 04654 100.0380 267.2399 0034367 319.8238 093.3880 14.00176876190425
0 THORAD AGENA D DEB
1 04654U 70025AN  13292.19156490  .00001877  00000-0  13004-2 0  4735
2 04654 100.0377 268.6523 0034379 316.4337 109.6468 14.00179679190608
0 THORAD AGENA D DEB
1 04654U 70025AN  13293.48799649  .00002075  00000-0  14337-2 0  4749
2 04654 100.0380 270.0737 0034288 312.8992 164.5861 14.00184774190780
0 THORAD AGENA D DEB
1 04654U 70025AN  13294.90437819  .00002237  00000-0  15427-2 0  4757
2 04654 100.0382 271.6267 0034227 308.9891 104.2361 14.00189116190987
0 THORAD AGENA D DEB
1 04654U 70025AN  13295.90472313  .00002350  00000-0  16186-2 0  4766
2 04654 100.0381 272.7237 0034217 306.1937 106.7897 14.00193147191122
